[{"OBJECT_NAME":"STARLINK-6233","OBJECT_ID":"2023-094M","EPOCH":"2026-03-09T22:00:01.999584","MEAN_MOTION":15.14468056,"ECCENTRICITY":4.951e-5,"INCLINATION":43.0008,"RA_OF_ASC_NODE":28.6996,"ARG_OF_PERICENTER":290.179,"MEAN_ANOMALY":255.2112,"EPHEMERIS_TYPE":0,"CLASSIFICATION_TYPE":"U","NORAD_CAT_ID":57229,"ELEMENT_SET_NO":999,"REV_AT_EPOCH":577,"BSTAR":0.0040861784,"MEAN_MOTION_DOT":0.00077118,"MEAN_MOTION_DDOT":0},{"OBJECT_NAME":"HYDROGNSS-2","OBJECT_ID":"2025-276DB","EPOCH":"2026-03-09T23:16:13.603296","MEAN_MOTION":15.17394407,"ECCENTRICITY":0.00029502,"INCLINATION":97.4274,"RA_OF_ASC_NODE":144.1742,"ARG_OF_PERICENTER":240.4199,"MEAN_ANOMALY":119.6741,"EPHEMERIS_TYPE":0,"CLASSIFICATION_TYPE":"U","NORAD_CAT_ID":66763,"ELEMENT_SET_NO":999,"REV_AT_EPOCH":1535,"BSTAR":0.00027739627,"MEAN_MOTION_DOT":5.478e-5,"MEAN_MOTION_DDOT":0}]
